IRIDIUM 36              
1 24967U 97056C   24165.50219789  .00000745  00000+0  24571-3 0  9991
2 24967  86.3960 327.8412 0002275  93.6236 266.5221 14.36841924399269
IRIDIUM 39              
1 25042U 97069D   24165.62273838  .00000882  00000+0  23140-3 0  9991
2 25042  86.3924   9.0783 0020461  95.7030 264.6507 14.47998101395608
IRIDIUM 38              
1 25043U 97069E   24165.58044747  .00000575  00000+0  18627-3 0  9995
2 25043  86.3970  28.1797 0001347 141.6600 218.4694 14.37294021392995
IRIDIUM 42              
1 25077U 97077A   24165.62900401  .00000359  00000+0  11795-3 0  9993
2 25077  86.3975  33.8750 0001589  94.1484 265.9894 14.35590630388301
IRIDIUM 44              
1 25078U 97077B   24165.59899903  .00000628  00000+0  19542-3 0  9991
2 25078  86.3966  16.8058 0003259 119.8284 240.3239 14.39430899390669
IRIDIUM 45              
1 25104U 97082A   24165.62224037  .00008343  00000+0  46718-3 0  9998
2 25104  86.3745 223.9216 0156728 251.8843 106.5269 15.03298231396328
IRIDIUM 24              
1 25105U 97082B   24165.62226729  .00000678  00000+0  20405-3 0  9997
2 25105  86.3926 236.3782 0010524 204.7299 155.3398 14.41216165390114
IRIDIUM 51              
1 25262U 98018A   24165.60374891  .00018058  00000+0  82999-3 0  9990
2 25262  86.3961 233.7611 0145069 195.1515 164.5359 15.11236349390872
